{
  "type": "FeatureCollection",
  "features": [
    {
      "type": "Feature",
      "properties": {
        "norad_id": 64903,
        "name": "CO3D 1",
        "group": "resource",
        "lat": -18.4847628384071,
        "lon": -106.93411156785182,
        "alt_km": 510.78101476849224,
        "timestamp": "2025-12-25T11:37:44.079766+00:00",
        "meta_object_name": "CO3D 1",
        "meta_object_id": "2025-156E",
        "meta_epoch": "2025-12-25T04:26:21.597216",
        "meta_mean_motion": 15.20192774,
        "meta_eccentricity": 8.82e-05,
        "meta_inclination": 97.434,
        "meta_ra_of_asc_node": 75.2724,
        "meta_arg_of_pericenter": 70.2005,
        "meta_mean_anomaly": 289.9325,
        "meta_ephemeris_type": 0,
        "meta_classification_type": "U",
        "meta_norad_cat_id": 64903,
        "meta_element_set_no": 999,
        "meta_rev_at_epoch": 2309,
        "meta_bstar": 0.00010155,
        "meta_mean_motion_dot": 2.131e-05,
        "meta_mean_motion_ddot": 0,
        "tle_line1": "1 64903U 25156E   25359.18497219  .00002131  00000+0  10155-3 0  9997",
        "tle_line2": "2 64903  97.4340  75.2724 0000882  70.2005 289.9325 15.20192774 23090"
      },
      "geometry": {
        "type": "Point",
        "coordinates": [
          -106.93411156785182,
          -18.4847628384071
        ]
      }
    },
    {
      "type": "Feature",
      "properties": {
        "norad_id": 66514,
        "name": "SENTINEL-6B",
        "group": "resource",
        "lat": -2.257816077255451,
        "lon": -43.03233602285325,
        "alt_km": 1339.6362287767233,
        "timestamp": "2025-12-25T11:37:44.079779+00:00",
        "meta_object_name": "SENTINEL-6B",
        "meta_object_id": "2025-264A",
        "meta_epoch": "2025-12-24T15:56:27.687840",
        "meta_mean_motion": 12.80929573,
        "meta_eccentricity": 0.00078982,
        "meta_inclination": 66.0398,
        "meta_ra_of_asc_node": 137.6666,
        "meta_arg_of_pericenter": 269.9778,
        "meta_mean_anomaly": 90.0333,
        "meta_ephemeris_type": 0,
        "meta_classification_type": "U",
        "meta_norad_cat_id": 66514,
        "meta_element_set_no": 999,
        "meta_rev_at_epoch": 481,
        "meta_bstar": 6.3146286e-05,
        "meta_mean_motion_dot": -4.6e-07,
        "meta_mean_motion_ddot": 0,
        "tle_line1": "1 66514U 25264A   25358.66420935 -.00000046  00000+0  63146-4 0  9993",
        "tle_line2": "2 66514  66.0398 137.6666 0007898 269.9778  90.0333 12.80929573  4818"
      },
      "geometry": {
        "type": "Point",
        "coordinates": [
          -43.03233602285325,
          -2.257816077255451
        ]
      }
    }
  ]
}